%
(1008)
(T1 D=4. CR=0. - ZMIN=-10.1 - FLAT END MILL)
N10 G90 G94 G17 G91.1
N15 G21
(WHEN USING FUSION FOR PERSONAL USE, THE FEEDRATE OF RAPID)
(MOVES IS REDUCED TO MATCH THE FEEDRATE OF CUTTING MOVES,)
(WHICH CAN INCREASE MACHINING TIME. UNRESTRICTED RAPID MOVES)
(ARE AVAILABLE WITH A FUSION SUBSCRIPTION.)
N20 G53 G0 Z0.
(2D POCKET3)
N25 T1 M6
N30 S10000 M3
N35 G17 G90 G94
N40 G54
N45 G64 P0.1 Q0.1
N50 M8
N55 G0 X170.529 Y-7.168
N60 G43 Z15. H1
N65 G1 Z5. F400.
N70 Z2.9 F500.
N75 X170.54 Y-7.196 Z2.748 F1200.
N80 X170.58 Y-7.271 Z2.62
N85 X170.618 Y-7.322 Z2.576
N90 X170.662 Y-7.368 Z2.532
N95 X170.721 Y-7.415 Z2.516
N100 X170.786 Y-7.452 Z2.5
N105 X170.855 Y-7.479 Z2.499
N110 X170.927 Y-7.495 Z2.497
N115 X171. Y-7.5 Z2.496
N120 X184. Z2.273
N125 G3 Y-6.5 Z2.246 I0. J0.5
N130 G1 X171. Z2.023
N135 G3 Y-7.5 Z1.996 I0. J-0.5
N140 G1 X184. Z1.773
N145 G3 Y-6.5 Z1.746 I0. J0.5
N150 G1 X171. Z1.523
N155 G3 Y-7.5 Z1.496 I0. J-0.5
N160 G1 X184. Z1.273
N165 G3 Y-6.5 Z1.246 I0. J0.5
N170 G1 X171. Z1.023
N175 G3 Y-7.5 Z0.996 I0. J-0.5
N180 G1 X184. Z0.773
N185 G3 Y-6.5 Z0.746 I0. J0.5
N190 G1 X171. Z0.523
N195 G3 Y-7.5 Z0.496 I0. J-0.5
N200 G1 X184. Z0.273
N205 G3 Y-6.5 Z0.246 I0. J0.5
N210 G1 X171. Z0.023
N215 G3 Y-7.5 Z-0.004 I0. J-0.5
N220 G1 X184. Z-0.227
N225 G3 Y-6.5 Z-0.254 I0. J0.5
N230 G1 X171. Z-0.477
N235 X170.92 Y-6.506 Z-0.478
N240 X170.843 Y-6.525 Z-0.48
N245 X170.769 Y-6.557 Z-0.481
N250 G3 X171. Y-7.5 I0.231 J-0.443 F400.
N255 G1 X184.
N260 G3 Y-6.5 I0. J0.5
N265 G1 X171.
N270 X170.92 Y-6.506
N275 X170.843 Y-6.525
N280 X170.769 Y-6.557
N285 G3 X171. Y-7.5 Z-0.504 I0.231 J-0.443 F1200.
N290 G1 X184. Z-0.727
N295 G3 Y-6.5 Z-0.754 I0. J0.5
N300 G1 X171.87 Z-0.962
N305 X171. F400.
N310 G3 Y-7.5 I0. J-0.5
N315 G1 X184.
N320 G3 Y-6.5 I0. J0.5
N325 G1 X171.87
N330 X171. Z-0.977 F1200.
N335 G3 Y-7.5 Z-1.004 I0. J-0.5
N340 G1 X184. Z-1.227
N345 G3 Y-6.5 Z-1.254 I0. J0.5
N350 G1 X172.98 Z-1.443
N355 X171.87 F400.
N360 X171.
N365 G3 Y-7.5 I0. J-0.5
N370 G1 X184.
N375 G3 Y-6.5 I0. J0.5
N380 G1 X172.98
N385 X171. Z-1.477 F1200.
N390 G3 Y-7.5 Z-1.504 I0. J-0.5
N395 G1 X184. Z-1.727
N400 G3 Y-6.5 Z-1.754 I0. J0.5
N405 G1 X174.09 Z-1.924
N410 X171. F400.
N415 G3 Y-7.5 I0. J-0.5
N420 G1 X184.
N425 G3 Y-6.5 I0. J0.5
N430 G1 X174.09
N435 X171. Z-1.977 F1200.
N440 G3 Y-7.5 Z-2.004 I0. J-0.5
N445 G1 X184. Z-2.227
N450 G3 Y-6.5 Z-2.254 I0. J0.5
N455 G1 X175.201 Z-2.405
N460 X171. F400.
N465 G3 Y-7.5 I0. J-0.5
N470 G1 X184.
N475 G3 Y-6.5 I0. J0.5
N480 G1 X175.201
N485 X171. Z-2.477 F1200.
N490 G3 Y-7.5 Z-2.504 I0. J-0.5
N495 G1 X184. Z-2.727
N500 G3 Y-6.5 Z-2.754 I0. J0.5
N505 G1 X176.311 Z-2.886
N510 X171. F400.
N515 G3 Y-7.5 I0. J-0.5
N520 G1 X184.
N525 G3 Y-6.5 I0. J0.5
N530 G1 X176.311
N535 X171. Z-2.977 F1200.
N540 G3 Y-7.5 Z-3.004 I0. J-0.5
N545 G1 X184. Z-3.227
N550 G3 Y-6.5 Z-3.254 I0. J0.5
N555 G1 X177.421 Z-3.367
N560 X171. F400.
N565 G3 Y-7.5 I0. J-0.5
N570 G1 X184.
N575 G3 Y-6.5 I0. J0.5
N580 G1 X177.421
N585 X171. Z-3.477 F1200.
N590 G3 Y-7.5 Z-3.504 I0. J-0.5
N595 G1 X184. Z-3.727
N600 G3 Y-6.5 Z-3.754 I0. J0.5
N605 G1 X178.531 Z-3.848
N610 X171. F400.
N615 G3 Y-7.5 I0. J-0.5
N620 G1 X184.
N625 G3 Y-6.5 I0. J0.5
N630 G1 X178.531
N635 X171. Z-3.977 F1200.
N640 G3 Y-7.5 Z-4.004 I0. J-0.5
N645 G1 X184. Z-4.227
N650 G3 Y-6.5 Z-4.254 I0. J0.5
N655 G1 X179.641 Z-4.329
N660 X171. F400.
N665 G3 Y-7.5 I0. J-0.5
N670 G1 X184.
N675 G3 Y-6.5 I0. J0.5
N680 G1 X179.641
N685 X171. Z-4.477 F1200.
N690 G3 Y-7.5 Z-4.504 I0. J-0.5
N695 G1 X184. Z-4.727
N700 G3 Y-6.5 Z-4.754 I0. J0.5
N705 G1 X180.751 Z-4.81
N710 X171. F400.
N715 G3 Y-7.5 I0. J-0.5
N720 G1 X184.
N725 G3 Y-6.5 I0. J0.5
N730 G1 X180.751
N735 X171. Z-4.977 F1200.
N740 G3 Y-7.5 Z-5.004 I0. J-0.5
N745 G1 X184. Z-5.227
N750 G3 Y-6.5 Z-5.254 I0. J0.5
N755 G1 X181.862 Z-5.29
N760 X171. F400.
N765 G3 Y-7.5 I0. J-0.5
N770 G1 X184.
N775 G3 Y-6.5 I0. J0.5
N780 G1 X181.862
N785 X171. Z-5.477 F1200.
N790 G3 Y-7.5 Z-5.504 I0. J-0.5
N795 G1 X184. Z-5.727
N800 G3 Y-6.5 Z-5.754 I0. J0.5
N805 G1 X182.972 Z-5.771
N810 X171. F400.
N815 G3 Y-7.5 I0. J-0.5
N820 G1 X184.
N825 G3 Y-6.5 I0. J0.5
N830 G1 X182.972
N835 X171. Z-5.977 F1200.
N840 G3 Y-7.5 Z-6.004 I0. J-0.5
N845 G1 X184. Z-6.227
N850 G3 X184.082 Y-6.507 Z-6.252 I0. J0.5
N855 G1 X184. Y-6.5 F400.
N860 X171.
N865 G3 Y-7.5 I0. J-0.5
N870 G1 X184.
N875 G3 X184.082 Y-6.507 I0. J0.5
N880 G1 X184. Y-6.5 Z-6.254 F1200.
N885 X171. Z-6.477
N890 G3 Y-7.5 Z-6.504 I0. J-0.5
N895 G1 X184. Z-6.727
N900 G3 X184.344 Y-7.363 Z-6.733 I0. J0.5
N905 X184. Y-6.5 I-0.344 J0.363 F400.
N910 G1 X171.
N915 G3 Y-7.5 I0. J-0.5
N920 G1 X184.
N925 G3 X184.344 Y-7.363 I0. J0.5
N930 X184. Y-6.5 Z-6.754 I-0.344 J0.363 F1200.
N935 G1 X171. Z-6.977
N940 G3 Y-7.5 Z-7.004 I0. J-0.5
N945 G1 X183.269 Z-7.214
N950 X184. F400.
N955 G3 Y-6.5 I0. J0.5
N960 G1 X171.
N965 G3 Y-7.5 I0. J-0.5
N970 G1 X183.269
N975 X184. Z-7.227 F1200.
N980 G3 Y-6.5 Z-7.254 I0. J0.5
N985 G1 X171. Z-7.477
N990 G3 Y-7.5 Z-7.504 I0. J-0.5
N995 G1 X182.158 Z-7.695
N1000 X183.269 F400.
N1005 X184.
N1010 G3 Y-6.5 I0. J0.5
N1015 G1 X171.
N1020 G3 Y-7.5 I0. J-0.5
N1025 G1 X182.158
N1030 X184. Z-7.727 F1200.
N1035 G3 Y-6.5 Z-7.754 I0. J0.5
N1040 G1 X171. Z-7.977
N1045 G3 Y-7.5 Z-8.004 I0. J-0.5
N1050 G1 X181.048 Z-8.176
N1055 X184. F400.
N1060 G3 Y-6.5 I0. J0.5
N1065 G1 X171.
N1070 G3 Y-7.5 I0. J-0.5
N1075 G1 X181.048
N1080 X184. Z-8.227 F1200.
N1085 G3 Y-6.5 Z-8.254 I0. J0.5
N1090 G1 X171. Z-8.477
N1095 G3 Y-7.5 Z-8.504 I0. J-0.5
N1100 G1 X179.938 Z-8.657
N1105 X184. F400.
N1110 G3 Y-6.5 I0. J0.5
N1115 G1 X171.
N1120 G3 Y-7.5 I0. J-0.5
N1125 G1 X179.938
N1130 X184. Z-8.727 F1200.
N1135 G3 Y-6.5 Z-8.754 I0. J0.5
N1140 G1 X171. Z-8.977
N1145 G3 Y-7.5 Z-9.004 I0. J-0.5
N1150 G1 X178.828 Z-9.138
N1155 X184. F400.
N1160 G3 Y-6.5 I0. J0.5
N1165 G1 X171.
N1170 G3 Y-7.5 I0. J-0.5
N1175 G1 X178.828
N1180 X184. Z-9.227 F1200.
N1185 G3 Y-6.5 Z-9.254 I0. J0.5
N1190 G1 X171. Z-9.477
N1195 G3 Y-7.5 Z-9.504 I0. J-0.5
N1200 G1 X177.718 Z-9.619
N1205 X184. F400.
N1210 G3 Y-6.5 I0. J0.5
N1215 G1 X171.
N1220 G3 Y-7.5 I0. J-0.5
N1225 G1 X177.718
N1230 X184. Z-9.727 F1200.
N1235 G3 Y-6.5 Z-9.754 I0. J0.5
N1240 G1 X171. Z-9.977
N1245 G3 Y-7.5 Z-10.004 I0. J-0.5
N1250 G1 X176.608 Z-10.1
N1255 X184. F400.
N1260 G3 Y-6.5 I0. J0.5
N1265 G1 X171.
N1270 G3 Y-7.5 I0. J-0.5
N1275 G1 X176.608
N1280 X176.684 Y-7.491 Z-10.085
N1285 X176.756 Y-7.467 Z-10.07
N1290 X176.813 Y-7.435 Z-10.026
N1295 X176.864 Y-7.395 Z-9.983
N1300 X176.894 Y-7.364 Z-9.918
N1305 X176.92 Y-7.33 Z-9.853
N1310 X176.936 Y-7.304 Z-9.7
N1315 Z5.
N1320 X170.529 Y-26.168
N1325 Z2.9 F500.
N1330 X170.54 Y-26.196 Z2.748 F1200.
N1335 X170.58 Y-26.271 Z2.62
N1340 X170.618 Y-26.322 Z2.576
N1345 X170.662 Y-26.368 Z2.532
N1350 X170.721 Y-26.415 Z2.516
N1355 X170.786 Y-26.452 Z2.5
N1360 X170.855 Y-26.479 Z2.499
N1365 X170.927 Y-26.495 Z2.497
N1370 X171. Y-26.5 Z2.496
N1375 X184. Z2.273
N1380 G3 Y-25.5 Z2.246 I0. J0.5
N1385 G1 X171. Z2.023
N1390 G3 Y-26.5 Z1.996 I0. J-0.5
N1395 G1 X184. Z1.773
N1400 G3 Y-25.5 Z1.746 I0. J0.5
N1405 G1 X171. Z1.523
N1410 G3 Y-26.5 Z1.496 I0. J-0.5
N1415 G1 X184. Z1.273
N1420 G3 Y-25.5 Z1.246 I0. J0.5
N1425 G1 X171. Z1.023
N1430 G3 Y-26.5 Z0.996 I0. J-0.5
N1435 G1 X184. Z0.773
N1440 G3 Y-25.5 Z0.746 I0. J0.5
N1445 G1 X171. Z0.523
N1450 G3 Y-26.5 Z0.496 I0. J-0.5
N1455 G1 X184. Z0.273
N1460 G3 Y-25.5 Z0.246 I0. J0.5
N1465 G1 X171. Z0.023
N1470 G3 Y-26.5 Z-0.004 I0. J-0.5
N1475 G1 X184. Z-0.227
N1480 G3 Y-25.5 Z-0.254 I0. J0.5
N1485 G1 X171. Z-0.477
N1490 X170.92 Y-25.506 Z-0.478
N1495 X170.843 Y-25.525 Z-0.48
N1500 X170.769 Y-25.557 Z-0.481
N1505 G3 X171. Y-26.5 I0.231 J-0.443 F400.
N1510 G1 X184.
N1515 G3 Y-25.5 I0. J0.5
N1520 G1 X171.
N1525 X170.92 Y-25.506
N1530 X170.843 Y-25.525
N1535 X170.769 Y-25.557
N1540 G3 X171. Y-26.5 Z-0.504 I0.231 J-0.443 F1200.
N1545 G1 X184. Z-0.727
N1550 G3 Y-25.5 Z-0.754 I0. J0.5
N1555 G1 X171.87 Z-0.962
N1560 X171. F400.
N1565 G3 Y-26.5 I0. J-0.5
N1570 G1 X184.
N1575 G3 Y-25.5 I0. J0.5
N1580 G1 X171.87
N1585 X171. Z-0.977 F1200.
N1590 G3 Y-26.5 Z-1.004 I0. J-0.5
N1595 G1 X184. Z-1.227
N1600 G3 Y-25.5 Z-1.254 I0. J0.5
N1605 G1 X172.98 Z-1.443
N1610 X171.87 F400.
N1615 X171.
N1620 G3 Y-26.5 I0. J-0.5
N1625 G1 X184.
N1630 G3 Y-25.5 I0. J0.5
N1635 G1 X172.98
N1640 X171. Z-1.477 F1200.
N1645 G3 Y-26.5 Z-1.504 I0. J-0.5
N1650 G1 X184. Z-1.727
N1655 G3 Y-25.5 Z-1.754 I0. J0.5
N1660 G1 X174.09 Z-1.924
N1665 X171. F400.
N1670 G3 Y-26.5 I0. J-0.5
N1675 G1 X184.
N1680 G3 Y-25.5 I0. J0.5
N1685 G1 X174.09
N1690 X171. Z-1.977 F1200.
N1695 G3 Y-26.5 Z-2.004 I0. J-0.5
N1700 G1 X184. Z-2.227
N1705 G3 Y-25.5 Z-2.254 I0. J0.5
N1710 G1 X175.201 Z-2.405
N1715 X171. F400.
N1720 G3 Y-26.5 I0. J-0.5
N1725 G1 X184.
N1730 G3 Y-25.5 I0. J0.5
N1735 G1 X175.201
N1740 X171. Z-2.477 F1200.
N1745 G3 Y-26.5 Z-2.504 I0. J-0.5
N1750 G1 X184. Z-2.727
N1755 G3 Y-25.5 Z-2.754 I0. J0.5
N1760 G1 X176.311 Z-2.886
N1765 X171. F400.
N1770 G3 Y-26.5 I0. J-0.5
N1775 G1 X184.
N1780 G3 Y-25.5 I0. J0.5
N1785 G1 X176.311
N1790 X171. Z-2.977 F1200.
N1795 G3 Y-26.5 Z-3.004 I0. J-0.5
N1800 G1 X184. Z-3.227
N1805 G3 Y-25.5 Z-3.254 I0. J0.5
N1810 G1 X177.421 Z-3.367
N1815 X171. F400.
N1820 G3 Y-26.5 I0. J-0.5
N1825 G1 X184.
N1830 G3 Y-25.5 I0. J0.5
N1835 G1 X177.421
N1840 X171. Z-3.477 F1200.
N1845 G3 Y-26.5 Z-3.504 I0. J-0.5
N1850 G1 X184. Z-3.727
N1855 G3 Y-25.5 Z-3.754 I0. J0.5
N1860 G1 X178.531 Z-3.848
N1865 X171. F400.
N1870 G3 Y-26.5 I0. J-0.5
N1875 G1 X184.
N1880 G3 Y-25.5 I0. J0.5
N1885 G1 X178.531
N1890 X171. Z-3.977 F1200.
N1895 G3 Y-26.5 Z-4.004 I0. J-0.5
N1900 G1 X184. Z-4.227
N1905 G3 Y-25.5 Z-4.254 I0. J0.5
N1910 G1 X179.641 Z-4.329
N1915 X171. F400.
N1920 G3 Y-26.5 I0. J-0.5
N1925 G1 X184.
N1930 G3 Y-25.5 I0. J0.5
N1935 G1 X179.641
N1940 X171. Z-4.477 F1200.
N1945 G3 Y-26.5 Z-4.504 I0. J-0.5
N1950 G1 X184. Z-4.727
N1955 G3 Y-25.5 Z-4.754 I0. J0.5
N1960 G1 X180.751 Z-4.81
N1965 X171. F400.
N1970 G3 Y-26.5 I0. J-0.5
N1975 G1 X184.
N1980 G3 Y-25.5 I0. J0.5
N1985 G1 X180.751
N1990 X171. Z-4.977 F1200.
N1995 G3 Y-26.5 Z-5.004 I0. J-0.5
N2000 G1 X184. Z-5.227
N2005 G3 Y-25.5 Z-5.254 I0. J0.5
N2010 G1 X181.862 Z-5.29
N2015 X171. F400.
N2020 G3 Y-26.5 I0. J-0.5
N2025 G1 X184.
N2030 G3 Y-25.5 I0. J0.5
N2035 G1 X181.862
N2040 X171. Z-5.477 F1200.
N2045 G3 Y-26.5 Z-5.504 I0. J-0.5
N2050 G1 X184. Z-5.727
N2055 G3 Y-25.5 Z-5.754 I0. J0.5
N2060 G1 X182.972 Z-5.771
N2065 X171. F400.
N2070 G3 Y-26.5 I0. J-0.5
N2075 G1 X184.
N2080 G3 Y-25.5 I0. J0.5
N2085 G1 X182.972
N2090 X171. Z-5.977 F1200.
N2095 G3 Y-26.5 Z-6.004 I0. J-0.5
N2100 G1 X184. Z-6.227
N2105 G3 X184.082 Y-25.507 Z-6.252 I0. J0.5
N2110 G1 X184. Y-25.5 F400.
N2115 X171.
N2120 G3 Y-26.5 I0. J-0.5
N2125 G1 X184.
N2130 G3 X184.082 Y-25.507 I0. J0.5
N2135 G1 X184. Y-25.5 Z-6.254 F1200.
N2140 X171. Z-6.477
N2145 G3 Y-26.5 Z-6.504 I0. J-0.5
N2150 G1 X184. Z-6.727
N2155 G3 X184.344 Y-26.363 Z-6.733 I0. J0.5
N2160 X184. Y-25.5 I-0.344 J0.363 F400.
N2165 G1 X171.
N2170 G3 Y-26.5 I0. J-0.5
N2175 G1 X184.
N2180 G3 X184.344 Y-26.363 I0. J0.5
N2185 X184. Y-25.5 Z-6.754 I-0.344 J0.363 F1200.
N2190 G1 X171. Z-6.977
N2195 G3 Y-26.5 Z-7.004 I0. J-0.5
N2200 G1 X183.269 Z-7.214
N2205 X184. F400.
N2210 G3 Y-25.5 I0. J0.5
N2215 G1 X171.
N2220 G3 Y-26.5 I0. J-0.5
N2225 G1 X183.269
N2230 X184. Z-7.227 F1200.
N2235 G3 Y-25.5 Z-7.254 I0. J0.5
N2240 G1 X171. Z-7.477
N2245 G3 Y-26.5 Z-7.504 I0. J-0.5
N2250 G1 X182.158 Z-7.695
N2255 X183.269 F400.
N2260 X184.
N2265 G3 Y-25.5 I0. J0.5
N2270 G1 X171.
N2275 G3 Y-26.5 I0. J-0.5
N2280 G1 X182.158
N2285 X184. Z-7.727 F1200.
N2290 G3 Y-25.5 Z-7.754 I0. J0.5
N2295 G1 X171. Z-7.977
N2300 G3 Y-26.5 Z-8.004 I0. J-0.5
N2305 G1 X181.048 Z-8.176
N2310 X184. F400.
N2315 G3 Y-25.5 I0. J0.5
N2320 G1 X171.
N2325 G3 Y-26.5 I0. J-0.5
N2330 G1 X181.048
N2335 X184. Z-8.227 F1200.
N2340 G3 Y-25.5 Z-8.254 I0. J0.5
N2345 G1 X171. Z-8.477
N2350 G3 Y-26.5 Z-8.504 I0. J-0.5
N2355 G1 X179.938 Z-8.657
N2360 X184. F400.
N2365 G3 Y-25.5 I0. J0.5
N2370 G1 X171.
N2375 G3 Y-26.5 I0. J-0.5
N2380 G1 X179.938
N2385 X184. Z-8.727 F1200.
N2390 G3 Y-25.5 Z-8.754 I0. J0.5
N2395 G1 X171. Z-8.977
N2400 G3 Y-26.5 Z-9.004 I0. J-0.5
N2405 G1 X178.828 Z-9.138
N2410 X184. F400.
N2415 G3 Y-25.5 I0. J0.5
N2420 G1 X171.
N2425 G3 Y-26.5 I0. J-0.5
N2430 G1 X178.828
N2435 X184. Z-9.227 F1200.
N2440 G3 Y-25.5 Z-9.254 I0. J0.5
N2445 G1 X171. Z-9.477
N2450 G3 Y-26.5 Z-9.504 I0. J-0.5
N2455 G1 X177.718 Z-9.619
N2460 X184. F400.
N2465 G3 Y-25.5 I0. J0.5
N2470 G1 X171.
N2475 G3 Y-26.5 I0. J-0.5
N2480 G1 X177.718
N2485 X184. Z-9.727 F1200.
N2490 G3 Y-25.5 Z-9.754 I0. J0.5
N2495 G1 X171. Z-9.977
N2500 G3 Y-26.5 Z-10.004 I0. J-0.5
N2505 G1 X176.608 Z-10.1
N2510 X184. F400.
N2515 G3 Y-25.5 I0. J0.5
N2520 G1 X171.
N2525 G3 Y-26.5 I0. J-0.5
N2530 G1 X176.608
N2535 X176.684 Y-26.491 Z-10.085
N2540 X176.756 Y-26.467 Z-10.07
N2545 X176.813 Y-26.435 Z-10.026
N2550 X176.864 Y-26.395 Z-9.983
N2555 X176.894 Y-26.364 Z-9.918
N2560 X176.92 Y-26.33 Z-9.853
N2565 X176.936 Y-26.304 Z-9.7
N2570 Z5.
N2575 X7.529 Y-26.168
N2580 Z2.9 F500.
N2585 X7.54 Y-26.196 Z2.748 F1200.
N2590 X7.58 Y-26.271 Z2.62
N2595 X7.618 Y-26.322 Z2.576
N2600 X7.662 Y-26.368 Z2.532
N2605 X7.721 Y-26.415 Z2.516
N2610 X7.786 Y-26.452 Z2.5
N2615 X7.855 Y-26.479 Z2.499
N2620 X7.927 Y-26.495 Z2.497
N2625 X8. Y-26.5 Z2.496
N2630 X21. Z2.273
N2635 G3 Y-25.5 Z2.246 I0. J0.5
N2640 G1 X8. Z2.023
N2645 G3 Y-26.5 Z1.996 I0. J-0.5
N2650 G1 X21. Z1.773
N2655 G3 Y-25.5 Z1.746 I0. J0.5
N2660 G1 X8. Z1.523
N2665 G3 Y-26.5 Z1.496 I0. J-0.5
N2670 G1 X21. Z1.273
N2675 G3 Y-25.5 Z1.246 I0. J0.5
N2680 G1 X8. Z1.023
N2685 G3 Y-26.5 Z0.996 I0. J-0.5
N2690 G1 X21. Z0.773
N2695 G3 Y-25.5 Z0.746 I0. J0.5
N2700 G1 X8. Z0.523
N2705 G3 Y-26.5 Z0.496 I0. J-0.5
N2710 G1 X21. Z0.273
N2715 G3 Y-25.5 Z0.246 I0. J0.5
N2720 G1 X8. Z0.023
N2725 G3 Y-26.5 Z-0.004 I0. J-0.5
N2730 G1 X21. Z-0.227
N2735 G3 Y-25.5 Z-0.254 I0. J0.5
N2740 G1 X8. Z-0.477
N2745 X7.92 Y-25.506 Z-0.478
N2750 X7.843 Y-25.525 Z-0.48
N2755 X7.769 Y-25.557 Z-0.481
N2760 G3 X8. Y-26.5 I0.231 J-0.443 F400.
N2765 G1 X21.
N2770 G3 Y-25.5 I0. J0.5
N2775 G1 X8.
N2780 X7.92 Y-25.506
N2785 X7.843 Y-25.525
N2790 X7.769 Y-25.557
N2795 G3 X8. Y-26.5 Z-0.504 I0.231 J-0.443 F1200.
N2800 G1 X21. Z-0.727
N2805 G3 Y-25.5 Z-0.754 I0. J0.5
N2810 G1 X8.87 Z-0.962
N2815 X8. F400.
N2820 G3 Y-26.5 I0. J-0.5
N2825 G1 X21.
N2830 G3 Y-25.5 I0. J0.5
N2835 G1 X8.87
N2840 X8. Z-0.977 F1200.
N2845 G3 Y-26.5 Z-1.004 I0. J-0.5
N2850 G1 X21. Z-1.227
N2855 G3 Y-25.5 Z-1.254 I0. J0.5
N2860 G1 X9.98 Z-1.443
N2865 X8.87 F400.
N2870 X8.
N2875 G3 Y-26.5 I0. J-0.5
N2880 G1 X21.
N2885 G3 Y-25.5 I0. J0.5
N2890 G1 X9.98
N2895 X8. Z-1.477 F1200.
N2900 G3 Y-26.5 Z-1.504 I0. J-0.5
N2905 G1 X21. Z-1.727
N2910 G3 Y-25.5 Z-1.754 I0. J0.5
N2915 G1 X11.09 Z-1.924
N2920 X8. F400.
N2925 G3 Y-26.5 I0. J-0.5
N2930 G1 X21.
N2935 G3 Y-25.5 I0. J0.5
N2940 G1 X11.09
N2945 X8. Z-1.977 F1200.
N2950 G3 Y-26.5 Z-2.004 I0. J-0.5
N2955 G1 X21. Z-2.227
N2960 G3 Y-25.5 Z-2.254 I0. J0.5
N2965 G1 X12.201 Z-2.405
N2970 X8. F400.
N2975 G3 Y-26.5 I0. J-0.5
N2980 G1 X21.
N2985 G3 Y-25.5 I0. J0.5
N2990 G1 X12.201
N2995 X8. Z-2.477 F1200.
N3000 G3 Y-26.5 Z-2.504 I0. J-0.5
N3005 G1 X21. Z-2.727
N3010 G3 Y-25.5 Z-2.754 I0. J0.5
N3015 G1 X13.311 Z-2.886
N3020 X8. F400.
N3025 G3 Y-26.5 I0. J-0.5
N3030 G1 X21.
N3035 G3 Y-25.5 I0. J0.5
N3040 G1 X13.311
N3045 X8. Z-2.977 F1200.
N3050 G3 Y-26.5 Z-3.004 I0. J-0.5
N3055 G1 X21. Z-3.227
N3060 G3 Y-25.5 Z-3.254 I0. J0.5
N3065 G1 X14.421 Z-3.367
N3070 X8. F400.
N3075 G3 Y-26.5 I0. J-0.5
N3080 G1 X21.
N3085 G3 Y-25.5 I0. J0.5
N3090 G1 X14.421
N3095 X8. Z-3.477 F1200.
N3100 G3 Y-26.5 Z-3.504 I0. J-0.5
N3105 G1 X21. Z-3.727
N3110 G3 Y-25.5 Z-3.754 I0. J0.5
N3115 G1 X15.531 Z-3.848
N3120 X8. F400.
N3125 G3 Y-26.5 I0. J-0.5
N3130 G1 X21.
N3135 G3 Y-25.5 I0. J0.5
N3140 G1 X15.531
N3145 X8. Z-3.977 F1200.
N3150 G3 Y-26.5 Z-4.004 I0. J-0.5
N3155 G1 X21. Z-4.227
N3160 G3 Y-25.5 Z-4.254 I0. J0.5
N3165 G1 X16.641 Z-4.329
N3170 X8. F400.
N3175 G3 Y-26.5 I0. J-0.5
N3180 G1 X21.
N3185 G3 Y-25.5 I0. J0.5
N3190 G1 X16.641
N3195 X8. Z-4.477 F1200.
N3200 G3 Y-26.5 Z-4.504 I0. J-0.5
N3205 G1 X21. Z-4.727
N3210 G3 Y-25.5 Z-4.754 I0. J0.5
N3215 G1 X17.751 Z-4.81
N3220 X8. F400.
N3225 G3 Y-26.5 I0. J-0.5
N3230 G1 X21.
N3235 G3 Y-25.5 I0. J0.5
N3240 G1 X17.751
N3245 X8. Z-4.977 F1200.
N3250 G3 Y-26.5 Z-5.004 I0. J-0.5
N3255 G1 X21. Z-5.227
N3260 G3 Y-25.5 Z-5.254 I0. J0.5
N3265 G1 X18.862 Z-5.29
N3270 X8. F400.
N3275 G3 Y-26.5 I0. J-0.5
N3280 G1 X21.
N3285 G3 Y-25.5 I0. J0.5
N3290 G1 X18.862
N3295 X8. Z-5.477 F1200.
N3300 G3 Y-26.5 Z-5.504 I0. J-0.5
N3305 G1 X21. Z-5.727
N3310 G3 Y-25.5 Z-5.754 I0. J0.5
N3315 G1 X19.972 Z-5.771
N3320 X8. F400.
N3325 G3 Y-26.5 I0. J-0.5
N3330 G1 X21.
N3335 G3 Y-25.5 I0. J0.5
N3340 G1 X19.972
N3345 X8. Z-5.977 F1200.
N3350 G3 Y-26.5 Z-6.004 I0. J-0.5
N3355 G1 X21. Z-6.227
N3360 G3 X21.082 Y-25.507 Z-6.252 I0. J0.5
N3365 G1 X21. Y-25.5 F400.
N3370 X8.
N3375 G3 Y-26.5 I0. J-0.5
N3380 G1 X21.
N3385 G3 X21.082 Y-25.507 I0. J0.5
N3390 G1 X21. Y-25.5 Z-6.254 F1200.
N3395 X8. Z-6.477
N3400 G3 Y-26.5 Z-6.504 I0. J-0.5
N3405 G1 X21. Z-6.727
N3410 G3 X21.344 Y-26.363 Z-6.733 I0. J0.5
N3415 X21. Y-25.5 I-0.344 J0.363 F400.
N3420 G1 X8.
N3425 G3 Y-26.5 I0. J-0.5
N3430 G1 X21.
N3435 G3 X21.344 Y-26.363 I0. J0.5
N3440 X21. Y-25.5 Z-6.754 I-0.344 J0.363 F1200.
N3445 G1 X8. Z-6.977
N3450 G3 Y-26.5 Z-7.004 I0. J-0.5
N3455 G1 X20.269 Z-7.214
N3460 X21. F400.
N3465 G3 Y-25.5 I0. J0.5
N3470 G1 X8.
N3475 G3 Y-26.5 I0. J-0.5
N3480 G1 X20.269
N3485 X21. Z-7.227 F1200.
N3490 G3 Y-25.5 Z-7.254 I0. J0.5
N3495 G1 X8. Z-7.477
N3500 G3 Y-26.5 Z-7.504 I0. J-0.5
N3505 G1 X19.158 Z-7.695
N3510 X20.269 F400.
N3515 X21.
N3520 G3 Y-25.5 I0. J0.5
N3525 G1 X8.
N3530 G3 Y-26.5 I0. J-0.5
N3535 G1 X19.158
N3540 X21. Z-7.727 F1200.
N3545 G3 Y-25.5 Z-7.754 I0. J0.5
N3550 G1 X8. Z-7.977
N3555 G3 Y-26.5 Z-8.004 I0. J-0.5
N3560 G1 X18.048 Z-8.176
N3565 X21. F400.
N3570 G3 Y-25.5 I0. J0.5
N3575 G1 X8.
N3580 G3 Y-26.5 I0. J-0.5
N3585 G1 X18.048
N3590 X21. Z-8.227 F1200.
N3595 G3 Y-25.5 Z-8.254 I0. J0.5
N3600 G1 X8. Z-8.477
N3605 G3 Y-26.5 Z-8.504 I0. J-0.5
N3610 G1 X16.938 Z-8.657
N3615 X21. F400.
N3620 G3 Y-25.5 I0. J0.5
N3625 G1 X8.
N3630 G3 Y-26.5 I0. J-0.5
N3635 G1 X16.938
N3640 X21. Z-8.727 F1200.
N3645 G3 Y-25.5 Z-8.754 I0. J0.5
N3650 G1 X8. Z-8.977
N3655 G3 Y-26.5 Z-9.004 I0. J-0.5
N3660 G1 X15.828 Z-9.138
N3665 X21. F400.
N3670 G3 Y-25.5 I0. J0.5
N3675 G1 X8.
N3680 G3 Y-26.5 I0. J-0.5
N3685 G1 X15.828
N3690 X21. Z-9.227 F1200.
N3695 G3 Y-25.5 Z-9.254 I0. J0.5
N3700 G1 X8. Z-9.477
N3705 G3 Y-26.5 Z-9.504 I0. J-0.5
N3710 G1 X14.718 Z-9.619
N3715 X21. F400.
N3720 G3 Y-25.5 I0. J0.5
N3725 G1 X8.
N3730 G3 Y-26.5 I0. J-0.5
N3735 G1 X14.718
N3740 X21. Z-9.727 F1200.
N3745 G3 Y-25.5 Z-9.754 I0. J0.5
N3750 G1 X8. Z-9.977
N3755 G3 Y-26.5 Z-10.004 I0. J-0.5
N3760 G1 X13.608 Z-10.1
N3765 X21. F400.
N3770 G3 Y-25.5 I0. J0.5
N3775 G1 X8.
N3780 G3 Y-26.5 I0. J-0.5
N3785 G1 X13.608
N3790 X13.684 Y-26.491 Z-10.085
N3795 X13.756 Y-26.467 Z-10.07
N3800 X13.813 Y-26.435 Z-10.026
N3805 X13.864 Y-26.395 Z-9.983
N3810 X13.894 Y-26.364 Z-9.918
N3815 X13.92 Y-26.33 Z-9.853
N3820 X13.936 Y-26.304 Z-9.7
N3825 Z5.
N3830 X7.529 Y-7.168
N3835 Z2.9 F500.
N3840 X7.54 Y-7.196 Z2.748 F1200.
N3845 X7.58 Y-7.271 Z2.62
N3850 X7.618 Y-7.322 Z2.576
N3855 X7.662 Y-7.368 Z2.532
N3860 X7.721 Y-7.415 Z2.516
N3865 X7.786 Y-7.452 Z2.5
N3870 X7.855 Y-7.479 Z2.499
N3875 X7.927 Y-7.495 Z2.497
N3880 X8. Y-7.5 Z2.496
N3885 X21. Z2.273
N3890 G3 Y-6.5 Z2.246 I0. J0.5
N3895 G1 X8. Z2.023
N3900 G3 Y-7.5 Z1.996 I0. J-0.5
N3905 G1 X21. Z1.773
N3910 G3 Y-6.5 Z1.746 I0. J0.5
N3915 G1 X8. Z1.523
N3920 G3 Y-7.5 Z1.496 I0. J-0.5
N3925 G1 X21. Z1.273
N3930 G3 Y-6.5 Z1.246 I0. J0.5
N3935 G1 X8. Z1.023
N3940 G3 Y-7.5 Z0.996 I0. J-0.5
N3945 G1 X21. Z0.773
N3950 G3 Y-6.5 Z0.746 I0. J0.5
N3955 G1 X8. Z0.523
N3960 G3 Y-7.5 Z0.496 I0. J-0.5
N3965 G1 X21. Z0.273
N3970 G3 Y-6.5 Z0.246 I0. J0.5
N3975 G1 X8. Z0.023
N3980 G3 Y-7.5 Z-0.004 I0. J-0.5
N3985 G1 X21. Z-0.227
N3990 G3 Y-6.5 Z-0.254 I0. J0.5
N3995 G1 X8. Z-0.477
N4000 X7.92 Y-6.506 Z-0.478
N4005 X7.843 Y-6.525 Z-0.48
N4010 X7.769 Y-6.557 Z-0.481
N4015 G3 X8. Y-7.5 I0.231 J-0.443 F400.
N4020 G1 X21.
N4025 G3 Y-6.5 I0. J0.5
N4030 G1 X8.
N4035 X7.92 Y-6.506
N4040 X7.843 Y-6.525
N4045 X7.769 Y-6.557
N4050 G3 X8. Y-7.5 Z-0.504 I0.231 J-0.443 F1200.
N4055 G1 X21. Z-0.727
N4060 G3 Y-6.5 Z-0.754 I0. J0.5
N4065 G1 X8.87 Z-0.962
N4070 X8. F400.
N4075 G3 Y-7.5 I0. J-0.5
N4080 G1 X21.
N4085 G3 Y-6.5 I0. J0.5
N4090 G1 X8.87
N4095 X8. Z-0.977 F1200.
N4100 G3 Y-7.5 Z-1.004 I0. J-0.5
N4105 G1 X21. Z-1.227
N4110 G3 Y-6.5 Z-1.254 I0. J0.5
N4115 G1 X9.98 Z-1.443
N4120 X8.87 F400.
N4125 X8.
N4130 G3 Y-7.5 I0. J-0.5
N4135 G1 X21.
N4140 G3 Y-6.5 I0. J0.5
N4145 G1 X9.98
N4150 X8. Z-1.477 F1200.
N4155 G3 Y-7.5 Z-1.504 I0. J-0.5
N4160 G1 X21. Z-1.727
N4165 G3 Y-6.5 Z-1.754 I0. J0.5
N4170 G1 X11.09 Z-1.924
N4175 X8. F400.
N4180 G3 Y-7.5 I0. J-0.5
N4185 G1 X21.
N4190 G3 Y-6.5 I0. J0.5
N4195 G1 X11.09
N4200 X8. Z-1.977 F1200.
N4205 G3 Y-7.5 Z-2.004 I0. J-0.5
N4210 G1 X21. Z-2.227
N4215 G3 Y-6.5 Z-2.254 I0. J0.5
N4220 G1 X12.201 Z-2.405
N4225 X8. F400.
N4230 G3 Y-7.5 I0. J-0.5
N4235 G1 X21.
N4240 G3 Y-6.5 I0. J0.5
N4245 G1 X12.201
N4250 X8. Z-2.477 F1200.
N4255 G3 Y-7.5 Z-2.504 I0. J-0.5
N4260 G1 X21. Z-2.727
N4265 G3 Y-6.5 Z-2.754 I0. J0.5
N4270 G1 X13.311 Z-2.886
N4275 X8. F400.
N4280 G3 Y-7.5 I0. J-0.5
N4285 G1 X21.
N4290 G3 Y-6.5 I0. J0.5
N4295 G1 X13.311
N4300 X8. Z-2.977 F1200.
N4305 G3 Y-7.5 Z-3.004 I0. J-0.5
N4310 G1 X21. Z-3.227
N4315 G3 Y-6.5 Z-3.254 I0. J0.5
N4320 G1 X14.421 Z-3.367
N4325 X8. F400.
N4330 G3 Y-7.5 I0. J-0.5
N4335 G1 X21.
N4340 G3 Y-6.5 I0. J0.5
N4345 G1 X14.421
N4350 X8. Z-3.477 F1200.
N4355 G3 Y-7.5 Z-3.504 I0. J-0.5
N4360 G1 X21. Z-3.727
N4365 G3 Y-6.5 Z-3.754 I0. J0.5
N4370 G1 X15.531 Z-3.848
N4375 X8. F400.
N4380 G3 Y-7.5 I0. J-0.5
N4385 G1 X21.
N4390 G3 Y-6.5 I0. J0.5
N4395 G1 X15.531
N4400 X8. Z-3.977 F1200.
N4405 G3 Y-7.5 Z-4.004 I0. J-0.5
N4410 G1 X21. Z-4.227
N4415 G3 Y-6.5 Z-4.254 I0. J0.5
N4420 G1 X16.641 Z-4.329
N4425 X8. F400.
N4430 G3 Y-7.5 I0. J-0.5
N4435 G1 X21.
N4440 G3 Y-6.5 I0. J0.5
N4445 G1 X16.641
N4450 X8. Z-4.477 F1200.
N4455 G3 Y-7.5 Z-4.504 I0. J-0.5
N4460 G1 X21. Z-4.727
N4465 G3 Y-6.5 Z-4.754 I0. J0.5
N4470 G1 X17.751 Z-4.81
N4475 X8. F400.
N4480 G3 Y-7.5 I0. J-0.5
N4485 G1 X21.
N4490 G3 Y-6.5 I0. J0.5
N4495 G1 X17.751
N4500 X8. Z-4.977 F1200.
N4505 G3 Y-7.5 Z-5.004 I0. J-0.5
N4510 G1 X21. Z-5.227
N4515 G3 Y-6.5 Z-5.254 I0. J0.5
N4520 G1 X18.862 Z-5.29
N4525 X8. F400.
N4530 G3 Y-7.5 I0. J-0.5
N4535 G1 X21.
N4540 G3 Y-6.5 I0. J0.5
N4545 G1 X18.862
N4550 X8. Z-5.477 F1200.
N4555 G3 Y-7.5 Z-5.504 I0. J-0.5
N4560 G1 X21. Z-5.727
N4565 G3 Y-6.5 Z-5.754 I0. J0.5
N4570 G1 X19.972 Z-5.771
N4575 X8. F400.
N4580 G3 Y-7.5 I0. J-0.5
N4585 G1 X21.
N4590 G3 Y-6.5 I0. J0.5
N4595 G1 X19.972
N4600 X8. Z-5.977 F1200.
N4605 G3 Y-7.5 Z-6.004 I0. J-0.5
N4610 G1 X21. Z-6.227
N4615 G3 X21.082 Y-6.507 Z-6.252 I0. J0.5
N4620 G1 X21. Y-6.5 F400.
N4625 X8.
N4630 G3 Y-7.5 I0. J-0.5
N4635 G1 X21.
N4640 G3 X21.082 Y-6.507 I0. J0.5
N4645 G1 X21. Y-6.5 Z-6.254 F1200.
N4650 X8. Z-6.477
N4655 G3 Y-7.5 Z-6.504 I0. J-0.5
N4660 G1 X21. Z-6.727
N4665 G3 X21.344 Y-7.363 Z-6.733 I0. J0.5
N4670 X21. Y-6.5 I-0.344 J0.363 F400.
N4675 G1 X8.
N4680 G3 Y-7.5 I0. J-0.5
N4685 G1 X21.
N4690 G3 X21.344 Y-7.363 I0. J0.5
N4695 X21. Y-6.5 Z-6.754 I-0.344 J0.363 F1200.
N4700 G1 X8. Z-6.977
N4705 G3 Y-7.5 Z-7.004 I0. J-0.5
N4710 G1 X20.269 Z-7.214
N4715 X21. F400.
N4720 G3 Y-6.5 I0. J0.5
N4725 G1 X8.
N4730 G3 Y-7.5 I0. J-0.5
N4735 G1 X20.269
N4740 X21. Z-7.227 F1200.
N4745 G3 Y-6.5 Z-7.254 I0. J0.5
N4750 G1 X8. Z-7.477
N4755 G3 Y-7.5 Z-7.504 I0. J-0.5
N4760 G1 X19.158 Z-7.695
N4765 X20.269 F400.
N4770 X21.
N4775 G3 Y-6.5 I0. J0.5
N4780 G1 X8.
N4785 G3 Y-7.5 I0. J-0.5
N4790 G1 X19.158
N4795 X21. Z-7.727 F1200.
N4800 G3 Y-6.5 Z-7.754 I0. J0.5
N4805 G1 X8. Z-7.977
N4810 G3 Y-7.5 Z-8.004 I0. J-0.5
N4815 G1 X18.048 Z-8.176
N4820 X21. F400.
N4825 G3 Y-6.5 I0. J0.5
N4830 G1 X8.
N4835 G3 Y-7.5 I0. J-0.5
N4840 G1 X18.048
N4845 X21. Z-8.227 F1200.
N4850 G3 Y-6.5 Z-8.254 I0. J0.5
N4855 G1 X8. Z-8.477
N4860 G3 Y-7.5 Z-8.504 I0. J-0.5
N4865 G1 X16.938 Z-8.657
N4870 X21. F400.
N4875 G3 Y-6.5 I0. J0.5
N4880 G1 X8.
N4885 G3 Y-7.5 I0. J-0.5
N4890 G1 X16.938
N4895 X21. Z-8.727 F1200.
N4900 G3 Y-6.5 Z-8.754 I0. J0.5
N4905 G1 X8. Z-8.977
N4910 G3 Y-7.5 Z-9.004 I0. J-0.5
N4915 G1 X15.828 Z-9.138
N4920 X21. F400.
N4925 G3 Y-6.5 I0. J0.5
N4930 G1 X8.
N4935 G3 Y-7.5 I0. J-0.5
N4940 G1 X15.828
N4945 X21. Z-9.227 F1200.
N4950 G3 Y-6.5 Z-9.254 I0. J0.5
N4955 G1 X8. Z-9.477
N4960 G3 Y-7.5 Z-9.504 I0. J-0.5
N4965 G1 X14.718 Z-9.619
N4970 X21. F400.
N4975 G3 Y-6.5 I0. J0.5
N4980 G1 X8.
N4985 G3 Y-7.5 I0. J-0.5
N4990 G1 X14.718
N4995 X21. Z-9.727 F1200.
N5000 G3 Y-6.5 Z-9.754 I0. J0.5
N5005 G1 X8. Z-9.977
N5010 G3 Y-7.5 Z-10.004 I0. J-0.5
N5015 G1 X13.608 Z-10.1
N5020 X21. F400.
N5025 G3 Y-6.5 I0. J0.5
N5030 G1 X8.
N5035 G3 Y-7.5 I0. J-0.5
N5040 G1 X13.608
N5045 X13.684 Y-7.491 Z-10.085
N5050 X13.756 Y-7.467 Z-10.07
N5055 X13.813 Y-7.435 Z-10.026
N5060 X13.864 Y-7.395 Z-9.983
N5065 X13.894 Y-7.364 Z-9.918
N5070 X13.92 Y-7.33 Z-9.853
N5075 X13.936 Y-7.304 Z-9.7
N5080 Z15.
N5085 M5
N5090 M9
N5095 G53 G0 Z0.
N5100 M30
%
